[{"OBJECT_NAME":"STARLINK-3543","OBJECT_ID":"2022-016C","EPOCH":"2026-03-09T22:36:23.819040","MEAN_MOTION":15.0881982,"ECCENTRICITY":8.647e-5,"INCLINATION":53.2185,"RA_OF_ASC_NODE":327.9877,"ARG_OF_PERICENTER":71.9815,"MEAN_ANOMALY":288.1271,"EPHEMERIS_TYPE":0,"CLASSIFICATION_TYPE":"U","NORAD_CAT_ID":51716,"ELEMENT_SET_NO":999,"REV_AT_EPOCH":22346,"BSTAR":-3.9694864e-5,"MEAN_MOTION_DOT":-9.19e-6,"MEAN_MOTION_DDOT":0},{"OBJECT_NAME":"OBJECT D","OBJECT_ID":"2025-292D","EPOCH":"2026-03-09T21:45:32.907168","MEAN_MOTION":15.05344615,"ECCENTRICITY":0.00138692,"INCLINATION":97.6365,"RA_OF_ASC_NODE":145.5948,"ARG_OF_PERICENTER":343.7291,"MEAN_ANOMALY":16.3488,"EPHEMERIS_TYPE":0,"CLASSIFICATION_TYPE":"U","NORAD_CAT_ID":66996,"ELEMENT_SET_NO":999,"REV_AT_EPOCH":1350,"BSTAR":0.00030674408,"MEAN_MOTION_DOT":4.34e-5,"MEAN_MOTION_DDOT":0}]
